{
  "type": "FeatureCollection",
  "features": [
    {
      "type": "Feature",
      "properties": {
        "norad_id": 33412,
        "name": "COSMO-SKYMED 3",
        "group": "resource",
        "lat": -10.95692636426885,
        "lon": 29.489767234543585,
        "alt_km": 549.1080291142507,
        "timestamp": "2025-12-26T09:30:53.284552+00:00",
        "meta_object_name": "COSMO-SKYMED 3",
        "meta_object_id": "2008-054A",
        "meta_epoch": "2025-12-26T03:53:06.706752",
        "meta_mean_motion": 15.05469749,
        "meta_eccentricity": 0.0017079,
        "meta_inclination": 97.8448,
        "meta_ra_of_asc_node": 210.7809,
        "meta_arg_of_pericenter": 128.3279,
        "meta_mean_anomaly": 231.9485,
        "meta_ephemeris_type": 0,
        "meta_classification_type": "U",
        "meta_norad_cat_id": 33412,
        "meta_element_set_no": 999,
        "meta_rev_at_epoch": 93089,
        "meta_bstar": 0.00031508,
        "meta_mean_motion_dot": 4.477e-05,
        "meta_mean_motion_ddot": 0,
        "tle_line1": "1 33412U 08054A   25360.16188318  .00004477  00000+0  31508-3 0  9993",
        "tle_line2": "2 33412  97.8448 210.7809 0017079 128.3279 231.9485 15.05469749930899"
      },
      "geometry": {
        "type": "Point",
        "coordinates": [
          29.489767234543585,
          -10.95692636426885
        ]
      }
    },
    {
      "type": "Feature",
      "properties": {
        "norad_id": 33446,
        "name": "YAOGAN-4",
        "group": "resource",
        "lat": 42.46967696818779,
        "lon": 117.68361627661216,
        "alt_km": 624.0349132423617,
        "timestamp": "2025-12-26T09:30:53.284564+00:00",
        "meta_object_name": "YAOGAN-4",
        "meta_object_id": "2008-061A",
        "meta_epoch": "2025-12-25T18:19:17.173344",
        "meta_mean_motion": 14.8271976,
        "meta_eccentricity": 0.00129661,
        "meta_inclination": 97.9198,
        "meta_ra_of_asc_node": 289.7359,
        "meta_arg_of_pericenter": 277.0684,
        "meta_mean_anomaly": 82.9055,
        "meta_ephemeris_type": 0,
        "meta_classification_type": "U",
        "meta_norad_cat_id": 33446,
        "meta_element_set_no": 999,
        "meta_rev_at_epoch": 91996,
        "meta_bstar": 0.00018510552,
        "meta_mean_motion_dot": 1.442e-05,
        "meta_mean_motion_ddot": 0,
        "tle_line1": "1 33446U 08061A   25359.76339321  .00001442  00000+0  18511-3 0  9992",
        "tle_line2": "2 33446  97.9198 289.7359 0012966 277.0684  82.9055 14.82719760919964"
      },
      "geometry": {
        "type": "Point",
        "coordinates": [
          117.68361627661216,
          42.46967696818779
        ]
      }
    },
    {
      "type": "Feature",
      "properties": {
        "norad_id": 33492,
        "name": "GOSAT (IBUKI)",
        "group": "resource",
        "lat": 14.668105390066774,
        "lon": -69.05973446879004,
        "alt_km": 669.4387572636815,
        "timestamp": "2025-12-26T09:30:53.284575+00:00",
        "meta_object_name": "GOSAT (IBUKI)",
        "meta_object_id": "2009-002A",
        "meta_epoch": "2025-12-26T03:51:21.830112",
        "meta_mean_motion": 14.67550296,
        "meta_eccentricity": 0.0001034,
        "meta_inclination": 98.0771,
        "meta_ra_of_asc_node": 108.5776,
        "meta_arg_of_pericenter": 105.7696,
        "meta_mean_anomaly": 254.3623,
        "meta_ephemeris_type": 0,
        "meta_classification_type": "U",
        "meta_norad_cat_id": 33492,
        "meta_element_set_no": 999,
        "meta_rev_at_epoch": 90608,
        "meta_bstar": 0.00016105,
        "meta_mean_motion_dot": 8.66e-06,
        "meta_mean_motion_ddot": 0,
        "tle_line1": "1 33492U 09002A   25360.16066933  .00000866  00000+0  16105-3 0  9997",
        "tle_line2": "2 33492  98.0771 108.5776 0001034 105.7696 254.3623 14.67550296906084"
      },
      "geometry": {
        "type": "Point",
        "coordinates": [
          -69.05973446879004,
          14.668105390066774
        ]
      }
    },
    {
      "type": "Feature",
      "properties": {
        "norad_id": 35681,
        "name": "DEIMOS-1",
        "group": "resource",
        "lat": -65.53882427329663,
        "lon": -36.97468886423458,
        "alt_km": 654.173202515366,
        "timestamp": "2025-12-26T09:30:53.284587+00:00",
        "meta_object_name": "DEIMOS-1",
        "meta_object_id": "2009-041A",
        "meta_epoch": "2025-12-26T05:08:36.905856",
        "meta_mean_motion": 14.74972371,
        "meta_eccentricity": 0.0002439,
        "meta_inclination": 97.7158,
        "meta_ra_of_asc_node": 160.1911,
        "meta_arg_of_pericenter": 59.0529,
        "meta_mean_anomaly": 301.092,
        "meta_ephemeris_type": 0,
        "meta_classification_type": "U",
        "meta_norad_cat_id": 35681,
        "meta_element_set_no": 999,
        "meta_rev_at_epoch": 88138,
        "meta_bstar": 0.00012759,
        "meta_mean_motion_dot": 8.1e-06,
        "meta_mean_motion_ddot": 0,
        "tle_line1": "1 35681U 09041A   25360.21431604  .00000810  00000+0  12759-3 0  9999",
        "tle_line2": "2 35681  97.7158 160.1911 0002439  59.0529 301.0920 14.74972371881387"
      },
      "geometry": {
        "type": "Point",
        "coordinates": [
          -36.97468886423458,
          -65.53882427329663
        ]
      }
    },
    {
      "type": "Feature",
      "properties": {
        "norad_id": 35682,
        "name": "DUBAISAT-1",
        "group": "resource",
        "lat": 14.710348446470856,
        "lon": -47.013700520321436,
        "alt_km": 648.36380832137,
        "timestamp": "2025-12-26T09:30:53.284598+00:00",
        "meta_object_name": "DUBAISAT-1",
        "meta_object_id": "2009-041B",
        "meta_epoch": "2025-12-25T22:59:48.723648",
        "meta_mean_motion": 14.74639444,
        "meta_eccentricity": 0.0009251,
        "meta_inclination": 97.9799,
        "meta_ra_of_asc_node": 130.444,
        "meta_arg_of_pericenter": 266.7795,
        "meta_mean_anomaly": 93.2355,
        "meta_ephemeris_type": 0,
        "meta_classification_type": "U",
        "meta_norad_cat_id": 35682,
        "meta_element_set_no": 999,
        "meta_rev_at_epoch": 87956,
        "meta_bstar": 0.00020689,
        "meta_mean_motion_dot": 1.33e-05,
        "meta_mean_motion_ddot": 0,
        "tle_line1": "1 35682U 09041B   25359.95820282  .00001330  00000+0  20689-3 0  9992",
        "tle_line2": "2 35682  97.9799 130.4440 0009251 266.7795  93.2355 14.74639444879569"
      },
      "geometry": {
        "type": "Point",
        "coordinates": [
          -47.013700520321436,
          14.710348446470856
        ]
      }
    },
    {
      "type": "Feature",
      "properties": {
        "norad_id": 35931,
        "name": "OCEANSAT-2",
        "group": "resource",
        "lat": -77.47674283537289,
        "lon": 139.00076480038075,
        "alt_km": 906.0919547366539,
        "timestamp": "2025-12-26T09:30:53.284609+00:00",
        "meta_object_name": "OCEANSAT-2",
        "meta_object_id": "2009-051A",
        "meta_epoch": "2025-12-26T04:50:30.244416",
        "meta_mean_motion": 13.99622973,
        "meta_eccentricity": 0.0015874,
        "meta_inclination": 98.2218,
        "meta_ra_of_asc_node": 359.4362,
        "meta_arg_of_pericenter": 9.637,
        "meta_mean_anomaly": 350.5098,
        "meta_ephemeris_type": 0,
        "meta_classification_type": "U",
        "meta_norad_cat_id": 35931,
        "meta_element_set_no": 999,
        "meta_rev_at_epoch": 85513,
        "meta_bstar": 3.0773e-05,
        "meta_mean_motion_dot": 8e-08,
        "meta_mean_motion_ddot": 0,
        "tle_line1": "1 35931U 09051A   25360.20173894  .00000008  00000+0  30773-4 0  9997",
        "tle_line2": "2 35931  98.2218 359.4362 0015874   9.6370 350.5098 13.99622973855138"
      },
      "geometry": {
        "type": "Point",
        "coordinates": [
          139.00076480038075,
          -77.47674283537289
        ]
      }
    },
    {
      "type": "Feature",
      "properties": {
        "norad_id": 35946,
        "name": "WORLDVIEW-2 (WV-2)",
        "group": "resource",
        "lat": 80.96607136279435,
        "lon": -38.983260549191684,
        "alt_km": 756.7227164154046,
        "timestamp": "2025-12-26T09:30:53.284620+00:00",
        "meta_object_name": "WORLDVIEW-2 (WV-2)",
        "meta_object_id": "2009-055A",
        "meta_epoch": "2025-12-26T04:04:22.486080",
        "meta_mean_motion": 14.37729843,
        "meta_eccentricity": 0.0004661,
        "meta_inclination": 98.4771,
        "meta_ra_of_asc_node": 71.0697,
        "meta_arg_of_pericenter": 37.3366,
        "meta_mean_anomaly": 322.8144,
        "meta_ephemeris_type": 0,
        "meta_classification_type": "U",
        "meta_norad_cat_id": 35946,
        "meta_element_set_no": 999,
        "meta_rev_at_epoch": 85078,
        "meta_bstar": 6.9883e-05,
        "meta_mean_motion_dot": 1.67e-06,
        "meta_mean_motion_ddot": 0,
        "tle_line1": "1 35946U 09055A   25360.16970470  .00000167  00000+0  69883-4 0  9997",
        "tle_line2": "2 35946  98.4771  71.0697 0004661  37.3366 322.8144 14.37729843850780"
      },
      "geometry": {
        "type": "Point",
        "coordinates": [
          -38.983260549191684,
          80.96607136279435
        ]
      }
    }
  ]
}